ONEWEB-0575             
1 56064U 23043U   24075.95753777  .00000053  00000+0  10522-3 0  9991
2 56064  87.9111  32.6057 0002516  82.7762 277.3655 13.16593573 50642
ONEWEB-0576             
1 56065U 23043V   24075.93854389  .00000092  00000+0  20685-3 0  9995
2 56065  87.9109  32.6090 0002207  90.6426 269.4958 13.16593570 50633
ONEWEB-0577             
1 56066U 23043W   24075.94487699  .00000076  00000+0  16558-3 0  9999
2 56066  87.9110  32.6063 0002817  80.6560 279.4890 13.16593568 50667
ONEWEB-0578             
1 56067U 23043X   24075.90512348  .00000008  00000+0 -11214-4 0  9997
2 56067  87.9251  47.8287 0001949  88.4840 271.6517 13.21826585 49473
ONEWEB-0579             
1 56068U 23043Y   24075.89564731  .00000015  00000+0  37691-5 0  9994
2 56068  87.9248  47.8311 0001960  70.2314 289.9031 13.21823446 50395
ONEWEB-0581             
1 56069U 23043Z   24075.95120864  .00000061  00000+0  12601-3 0  9990
2 56069  87.9111  32.6348 0002471  72.8401 287.3001 13.16593530 50638
